FLOCK 4S-13             
1 47472U 21006BM  22212.55490167  .00006561  00000+0  33691-3 0  9991
2 47472  97.4430 270.8554 0009038 132.6272 227.5724 15.16799963 83935
FLOCK 4S-35             
1 47473U 21006BN  22212.43385982  .00006649  00000+0  32949-3 0  9999
2 47473  97.4413 270.7819 0008437 130.8268 229.3699 15.18053063 83923
FLOCK 4S-8              
1 47474U 21006BP  22212.42818666  .00001305  00000+0  73474-4 0  9992
2 47474  97.4362 269.8353 0009670 134.3316 225.8710 15.14933756 83895
FLOCK 4S-31             
1 47475U 21006BQ  22212.41949611  .00006041  00000+0  30997-3 0  9991
2 47475  97.4354 270.1862 0008563 130.2189 229.9795 15.16867612 83910
FLOCK 4S-34             
1 47477U 21006BS  22212.42951243  .00005304  00000+0  27317-3 0  9991
2 47477  97.4413 270.6154 0008376 131.0422 229.1536 15.16794726 83918
FLOCK 4S-9              
1 47478U 21006BT  22212.43012221  .00006543  00000+0  33576-3 0  9997
2 47478  97.4360 270.2002 0008933 135.6907 224.5043 15.16827064 83919
FLOCK 4S-32             
1 47479U 21006BU  22212.42880072  .00007173  00000+0  35197-3 0  9995
2 47479  97.4357 270.3721 0008025 132.5453 227.6459 15.18368919 83926
FLOCK 4S-39             
1 47490U 21006CF  22212.12803255  .00002102  00000+0  11030-3 0  9990
2 47490  97.4454 270.7968 0011264 124.5201 235.7098 15.16773859 83880
FLOCK 4S-4              
1 47491U 21006CG  22212.12397107  .00003156  00000+0  16388-3 0  9996
2 47491  97.4331 269.9559 0011153 122.5909 237.6402 15.16788659 83885
FLOCK 4S-17             
1 47492U 21006CH  22212.12170140  .00004338  00000+0  22403-3 0  9991
2 47492  97.4463 270.8449 0011223 124.4579 235.7716 15.16772821 83884
FLOCK 4S-3              
1 47494U 21006CK  22212.47442139  .00001625  00000+0  89880-4 0  9990
2 47494  97.4344 270.0263 0011625 121.1354 239.1020 15.15204396 83917
FLOCK 4S-27             
1 47495U 21006CL  22212.11772918  .00005346  00000+0  27499-3 0  9994
2 47495  97.4337 270.0182 0011702 123.4529 236.7825 15.16801010 83884
FLOCK 4S-18             
1 47496U 21006CM  22212.44642389  .00005533  00000+0  28477-3 0  9994
2 47496  97.4442 271.0903 0011457 122.1876 238.0470 15.16770908 83930
FLOCK 4S-26             
1 47497U 21006CN  22212.42772813  .00007324  00000+0  34502-3 0  9995
2 47497  97.4330 270.8251 0010435 118.1805 242.0485 15.19760528 83966
FLOCK 4S-2              
1 47498U 21006CP  22212.43914594  .00005179  00000+0  26657-3 0  9999
2 47498  97.4348 270.3950 0011327 118.9992 241.2378 15.16802398 83931
FLOCK 4S-40             
1 47499U 21006CQ  22212.11981858  .00004262  00000+0  22046-3 0  9992
2 47499  97.4447 270.7509 0011641 124.3566 235.8770 15.16725878 83889
FLOCK 4S-19             
1 47500U 21006CR  22212.43423449  .00003142  00000+0  16302-3 0  9991
2 47500  97.4443 271.0864 0011989 120.9366 239.3047 15.16804296 83935
FLOCK 4S-28             
1 47514U 21006DE  22212.12877358  .00001818  00000+0  95856-4 0  9994
2 47514  97.4332 269.8184 0009239 130.9609 229.2425 15.16791210 84832
FLOCK 4S-5              
1 47515U 21006DF  22212.12699491  .00002865  00000+0  14907-3 0  9995
2 47515  97.4327 269.7739 0009575 132.1780 228.0268 15.16800578 83872
FLOCK 4S-16             
1 47516U 21006DG  22212.40141283  .00001877  00000+0  98807-4 0  9992
2 47516  97.4449 270.8804 0009532 130.7023 229.5040 15.16807144 84872
FLOCK 4S-6              
1 47518U 21006DJ  22212.46891553  .00002263  00000+0  11851-3 0  9995
2 47518  97.4342 270.1681 0009294 132.8929 227.3086 15.16788798 84896
FLOCK 4S-29             
1 47520U 21006DL  22212.39811476  .00002297  00000+0  12027-3 0  9999
2 47520  97.4347 270.1542 0008916 130.9803 229.2203 15.16785509 83911
FLOCK 4S-15             
1 47521U 21006DM  22212.41578408  .00001317  00000+0  73375-4 0  9994
2 47521  97.4460 270.6765 0009698 133.6022 226.6017 15.15285404 84879
FLOCK 4S-37             
1 47522U 21006DN  22212.47220924  .00001850  00000+0  97451-4 0  9991
2 47522  97.4434 270.8395 0008957 132.3486 227.8507 15.16802604 84896
FLOCK 4S-10             
1 47523U 21006DP  22212.44543931  .00003124  00000+0  16226-3 0  9991
2 47523  97.4369 270.2501 0008982 136.1669 224.0278 15.16801000 83915
FLOCK 4S-7              
1 47527U 21006DT  22212.40963994  .00002442  00000+0  12763-3 0  9990
2 47527  97.4339 270.1003 0009055 133.1648 227.0344 15.16786472 84876
FLOCK 4S-14             
1 47528U 21006DU  22212.41498475  .00002700  00000+0  14079-3 0  9998
2 47528  97.4438 270.7834 0009109 133.5109 226.6882 15.16781180 84874
FLOCK 4S-36             
1 47530U 21006DW  22212.41613281  .00002363  00000+0  12356-3 0  9996
2 47530  97.4426 270.7128 0008586 132.0491 228.1474 15.16809187 84878
FLOCK 4S-24             
1 47539U 21006DZ  22212.48403590  .00001788  00000+0  94366-4 0  9994
2 47539  97.4377 270.6949 0012274 119.6264 240.6194 15.16749471 83944
FLOCK 4S-20             
1 47540U 21006EA  22212.42004974  .00001761  00000+0  92859-4 0  9999
2 47540  97.4432 271.0228 0011570 120.2616 239.9764 15.16824000 83003
FLOCK 4S-25             
1 47542U 21006EC  22212.42735953  .00005900  00000+0  30318-3 0  9999
2 47542  97.4354 270.4705 0011923 121.2954 238.9449 15.16792187 83008
FLOCK 4S-1              
1 47543U 21006ED  22212.42565327  .00004541  00000+0  23404-3 0  9994
2 47543  97.4355 270.4629 0011399 118.2424 241.9961 15.16815182 83004
FLOCK 4S-30             
1 47544U 21006EE  22212.40628062  .00002029  00000+0  10657-3 0  9994
2 47544  97.4354 270.1891 0008706 131.0408 229.1579 15.16807707 84878
FLOCK 4S-23             
1 47545U 21006EF  22212.46832693  .00001890  00000+0  99312-4 0  9999
2 47545  97.4389 270.7919 0011847 120.6989 239.5413 15.16850392 84917
FLOCK 4S-42             
1 47612U 21006EQ  22212.46386469  .00002093  00000+0  10984-3 0  9992
2 47612  97.4412 270.8297 0011975 131.6392 228.5869 15.16774196 83932
FLOCK 4S-48             
1 47617U 21006EJ  22212.11236175  .00004345  00000+0  22437-3 0  9995
2 47617  97.4401 270.6001 0012794 114.7456 245.5110 15.16756323 84862
FLOCK 4S-46             
1 47684U 21006EK  22212.12392598  .00002128  00000+0  11169-3 0  9999
2 47684  97.4401 270.5570 0008686 140.4851 219.7017 15.16778154 83893
FLOCK 4S-47             
1 47685U 21006EL  22212.38444005  .00003526  00000+0  18290-3 0  9994
2 47685  97.4383 270.2742 0007810 134.7160 225.4710 15.16772710 84873
FLOCK 4S-44             
1 47686U 21006EM  22212.43712186  .00003530  00000+0  18277-3 0  9999
2 47686  97.4419 270.9243 0012956 126.9335 233.3087 15.16792506 83937
FLOCK 4S-43             
1 47687U 21006EN  22212.42415023  .00005079  00000+0  26167-3 0  9996
2 47687  97.4390 270.4649 0007921 122.8126 237.3871 15.16801752 84884
FLOCK 4S-45             
1 47688U 21006EP  22212.43412011  .00005196  00000+0  26745-3 0  9994
2 47688  97.4405 270.4006 0011959 114.5718 245.6763 15.16792810 84875
FLOCK 4S-41             
1 47698U 21006ER  22212.39685573  .00002611  00000+0  13619-3 0  9990
2 47698  97.4457 270.9232 0011368 124.5273 235.7035 15.16775002 83910
FLOCK 4X-8              
1 50992U 22002J   22212.41275808  .00001785  00000+0  97147-4 0  9997
2 50992  97.4851 278.9900 0009760 280.6745  79.3388 15.15712272 30082
FLOCK 4X-44             
1 50994U 22002L   22212.48519643  .00002049  00000+0  11112-3 0  9995
2 50994  97.4873 279.1039 0009863 279.3317  80.6800 15.15663745 30093
FLOCK 4X-2              
1 50996U 22002N   22212.48298998  .00001809  00000+0  98444-4 0  9991
2 50996  97.4864 279.0819 0009834 279.4416  80.5705 15.15690131 30091
FLOCK 4X-20             
1 50997U 22002P   22211.95166557  .00002366  00000+0  12766-3 0  9999
2 50997  97.4862 278.5597 0009777 282.8964  77.1176 15.15701759 30014
FLOCK 4X-30             
1 51000U 22002S   22212.15161139  .00001808  00000+0  98386-4 0  9992
2 51000  97.4809 278.6093 0009704 271.6076  88.4045 15.15700361 30044
FLOCK 4X-22             
1 51003U 22002V   22212.14733095  .00003721  00000+0  19867-3 0  9992
2 51003  97.4844 278.7173 0010011 283.8673  76.1446 15.15703863 30046
FLOCK 4X-5              
1 51004U 22002W   22212.41039196  .00004562  00000+0  24252-3 0  9992
2 51004  97.4821 278.9063 0010177 272.7907  87.2161 15.15736068 30086
FLOCK 4X-41             
1 51005U 22002X   22212.53969907  .00001960  00000+0  10624-3 0  9995
2 51005  97.4803 278.9933 0009774 267.9833  92.0280 15.15727046 30103
FLOCK 4X-3              
1 51006U 22002Y   22212.47327432  .00003081  00000+0  16490-3 0  9993
2 51006  97.4860 279.0848 0010491 277.6362  82.3679 15.15745892 30098
FLOCK 4X-18             
1 51007U 22002Z   22212.47139799  .00004819  00000+0  25585-3 0  9996
2 51007  97.4822 278.9843 0010551 272.3798  87.6227 15.15749720 30093
FLOCK 4X-37             
1 51009U 22002AB  22212.47089845  .00005241  00000+0  27779-3 0  9991
2 51009  97.4866 279.1106 0010724 277.0722  82.9291 15.15767911 30090
FLOCK 4X-15             
1 51010U 22002AC  22212.13370615  .00002665  00000+0  14317-3 0  9995
2 51010  97.4876 278.8054 0010791 276.4877  83.5127 15.15728796 30047
FLOCK 4X-29             
1 51011U 22002AD  22212.46860102  .00004615  00000+0  24531-3 0  9993
2 51011  97.4816 278.9702 0010491 270.9274  89.0756 15.15733463 30091
FLOCK 4X-27             
1 51012U 22002AE  22212.46734430  .00002017  00000+0  10911-3 0  9999
2 51012  97.4858 279.0805 0010837 279.9755  80.0254 15.15758127 30099
FLOCK 4X-12             
1 51015U 22002AH  22212.46134149  .00005049  00000+0  26782-3 0  9994
2 51015  97.4857 279.0939 0011036 272.9391  87.0578 15.15760236 30090
FLOCK 4X-25             
1 51016U 22002AJ  22212.46606130  .00005289  00000+0  27998-3 0  9995
2 51016  97.4839 279.0492 0010645 281.7298  78.2740 15.15808736 30095
FLOCK 4X-1              
1 51017U 22002AK  22212.45905221  .00005069  00000+0  26906-3 0  9992
2 51017  97.4822 279.0036 0010943 272.6180  87.3799 15.15735473 30094
FLOCK 4X-42             
1 51018U 22002AL  22212.46217521  .00004919  00000+0  26098-3 0  9998
2 51018  97.4807 278.9605 0010532 267.0282  92.9746 15.15768907 30095
